NORAD_CAT_ID,OBJECT_NAME,OBJECT_TYPE,EPOCH,MEAN_MOTION,ECCENTRICITY,INCLINATION,RA_OF_ASC_NODE,ARG_OF_PERICENTER,MEAN_ANOMALY,BSTAR,MEAN_MOTION_DOT,MEAN_MOTION_DDOT,TLE_LINE0,TLE_LINE1,TLE_LINE2,SEMIMAJOR_AXIS,PERIOD,APOGEE,PERIGEE,DECAYED
55752.0,STARLINK-5613,PAYLOAD,2023-04-29 14:00:01,15.10235492,0.000319,70.0025,359.5828,263.4274,45.5643,-0.059801,-0.00907718,0.0,0 STARLINK-5613,1 55752U 23028M   23119.58335648 -.00907718  00000-0 -59801-1 0  9995,2 55752  70.0025 359.5828 0003190 263.4274  45.5643 15.10235492  9492,6913.618,95.349,537.689,533.278,0.0
55752.0,STARLINK-5613,PAYLOAD,2023-04-30 06:00:00,15.08957536,0.000321,70.0024,357.8723,273.0989,57.7745,-0.066553,-0.00970041,0.0,0 STARLINK-5613,1 55752U 23028M   23120.25001157 -.00970041  00000-0 -66553-1 0  9997,2 55752  70.0024 357.8723 0003210 273.0989  57.7745 15.08957536  9595,6917.521,95.43,541.607,537.166,0.0
55752.0,STARLINK-5613,PAYLOAD,2023-04-30 14:00:01,15.08282612,0.0003225,70.0026,357.0185,267.0904,73.5848,-0.063613,-0.00914528,0.0,0 STARLINK-5613,1 55752U 23028M   23120.58334491 -.00914528  00000-0 -63613-1 0  9995,2 55752  70.0026 357.0185 0003225 267.0904  73.5848 15.08282612  1304,6919.585,95.473,543.681,539.218,0.0
55752.0,STARLINK-5613,PAYLOAD,2023-04-30 22:00:00,15.07605373,0.0003163,70.0027,356.1655,272.3163,77.392,-0.063041,-0.00891437,0.0,0 STARLINK-5613,1 55752U 23028M   23120.91667824 -.00891437  00000-0 -63041-1 0  9999,2 55752  70.0027 356.1655 0003163 272.3163  77.3920 15.07605373  9699,6921.657,95.516,545.711,541.332,0.0
55752.0,STARLINK-5613,PAYLOAD,2023-05-01 14:00:01,15.06328648,0.0003196,70.0026,354.462,267.2018,98.1801,-0.06748,-0.00919441,0.0,0 STARLINK-5613,1 55752U 23028M   23121.58334491 -.00919441  00000-0 -67480-1 0  9991,2 55752  70.0026 354.4620 0003196 267.2018  98.1801 15.06328648  9795,6925.567,95.597,549.646,545.219,0.0
55752.0,STARLINK-5613,PAYLOAD,2023-05-01 22:00:00,15.05646875,0.0003129,70.0026,353.6115,272.6988,99.3698,-0.066168,-0.00887514,0.0,0 STARLINK-5613,1 55752U 23028M   23121.91667824 -.00887514  00000-0 -66168-1 0  9994,2 55752  70.0026 353.6115 0003129 272.6988  99.3698 15.05646875  1307,6927.658,95.64,551.69,547.355,0.0
55752.0,STARLINK-5613,PAYLOAD,2023-05-02 14:00:01,15.0437584,0.0003156,70.0026,351.9131,267.4173,115.6934,-0.071661,-0.00925804,0.0,0 STARLINK-5613,1 55752U 23028M   23122.58335648 -.00925804  00000-0 -71661-1 0  9993,2 55752  70.0026 351.9131 0003156 267.4173 115.6934 15.04375840  9947,6931.559,95.721,555.612,551.237,0.0
55752.0,STARLINK-5613,PAYLOAD,2023-05-02 22:00:00,15.03686813,0.0003071,70.0025,351.0653,273.1878,114.2016,-0.069237,-0.00881491,0.0,0 STARLINK-5613,1 55752U 23028M   23122.91667824 -.00881491  00000-0 -69237-1 0  9993,2 55752  70.0025 351.0653 0003071 273.1878 114.2016 15.03686813  1300,6933.677,95.765,557.671,553.412,0.0
55752.0,STARLINK-5613,PAYLOAD,2023-05-03 14:00:01,15.02423281,0.0003119,70.0024,349.3722,267.789,125.8836,-0.076092,-0.00932558,0.0,0 STARLINK-5613,1 55752U 23028M   23123.58334491 -.00932558  00000-0 -76092-1 0  9996,2 55752  70.0024 349.3722 0003119 267.7890 125.8836 15.02423281 10093,6937.564,95.845,561.592,557.265,0.0
55752.0,STARLINK-5613,PAYLOAD,2023-05-03 22:00:00,15.01728501,0.0003053,70.0022,348.5269,274.0564,121.6118,-0.07254,-0.00877008,0.0,0 STARLINK-5613,1 55752U 23028M   23123.91667824 -.00877008  00000-0 -72540-1 0  9994,2 55752  70.0022 348.5269 0003053 274.0564 121.6118 15.01728501  1307,6939.703,95.89,563.687,559.449,0.0
55752.0,STARLINK-5613,PAYLOAD,2023-05-04 14:00:01,15.00469906,0.0003098,70.0021,346.8388,268.4217,128.8979,-0.080708,-0.00949643,0.0,0 STARLINK-5613,1 55752U 23028M   23124.58335648 -.00949643  00000-0 -80708-1 0  9994,2 55752  70.0021 346.8388 0003098 268.4217 128.8979 15.00469906 10247,6943.583,95.97,567.599,563.297,0.0
55752.0,STARLINK-5613,PAYLOAD,2023-05-04 22:00:01,14.99626143,0.0002907,70.0018,345.996,274.252,122.7419,-0.037589,-0.00436246,0.0,0 STARLINK-5613,1 55752U 23028M   23124.91668981 -.00436246  00000-0 -37589-1 0  9999,2 55752  70.0018 345.9960 0002907 274.2520 122.7419 14.99626143 10291,6946.188,96.024,570.072,566.033,0.0
55752.0,STARLINK-5613,PAYLOAD,2023-05-05 06:00:00,14.99331142,0.0002667,70.0015,345.154,273.1637,122.6027,-0.0058823,-0.00071398,0.0,0 STARLINK-5613,1 55752U 23028M   23125.25001157 -.00071398  00000-0 -58823-2 0  9991,2 55752  70.0015 345.1540 0002667 273.1637 122.6027 14.99331142 10346,6947.099,96.043,570.816,567.111,0.0
55752.0,STARLINK-5613,PAYLOAD,2023-05-05 22:00:00,14.99294081,0.0002485,70.0015,343.4706,272.2887,120.779,0.00026189,3.111e-05,0.0,0 STARLINK-5613,1 55752U 23028M   23125.91667824  .00003111  00000-0  26189-3 0  9990,2 55752  70.0015 343.4706 0002485 272.2887 120.7790 14.99294081 10443,6947.213,96.045,570.805,567.352,0.0
55752.0,STARLINK-5613,PAYLOAD,2023-05-06 16:00:00,14.99323603,0.00025,70.0015,341.5764,266.0358,213.9686,-0.0018243,-0.00022357,0.0,0 STARLINK-5613,1 55752U 23028M   23126.66667824 -.00022357  00000-0 -18243-2 0  9999,2 55752  70.0015 341.5764 0002500 266.0358 213.9686 14.99323603  1305,6947.122,96.043,570.724,567.25,0.0
55752.0,STARLINK-5613,PAYLOAD,2023-05-07 06:00:00,14.99298152,0.0002671,70.0009,340.1031,270.6329,117.0467,-0.0030415,-0.0003711,0.0,0 STARLINK-5613,1 55752U 23028M   23127.25001157 -.00037110  00000-0 -30415-2 0  9994,2 55752  70.0009 340.1031 0002671 270.6329 117.0467 14.99298152 10646,6947.201,96.045,570.921,567.21,0.0
55752.0,STARLINK-5613,PAYLOAD,2023-05-07 14:00:01,14.99292097,0.0002615,70.0012,339.2614,263.8975,122.3994,0.0020308,0.00024837,0.0,0 STARLINK-5613,1 55752U 23028M   23127.58334491  .00024837  00000-0  20308-2 0  9990,2 55752  70.0012 339.2614 0002615 263.8975 122.3994 14.99292097  1304,6947.219,96.045,570.901,567.268,0.0
55752.0,STARLINK-5613,PAYLOAD,2023-05-07 22:00:00,14.99295309,0.0002764,70.0012,338.4194,272.1866,112.7635,-3.5365e-05,-5.26e-06,0.0,0 STARLINK-5613,1 55752U 23028M   23127.91667824 -.00000526  00000-0 -35365-4 0  9998,2 55752  70.0012 338.4194 0002764 272.1866 112.7635 14.99295309 10747,6947.209,96.045,570.995,567.154,0.0
55752.0,STARLINK-5613,PAYLOAD,2023-05-07 23:29:28,14.99289232,0.0002303,70.0003,338.2631,263.6233,96.4664,-6.6256e-05,-9.04e-06,0.0,0 STARLINK-5613,1 55752U 23028M   23127.97879670 -.00000904  00000-0 -66256-4 0  9991,2 55752  70.0003 338.2631 0002303 263.6233  96.4664 14.99289232 10752,6947.228,96.046,570.693,567.493,0.0
55752.0,STARLINK-5613,PAYLOAD,2023-05-08 07:29:49,14.99298165,0.0002581,70.0002,337.4204,268.3238,91.7626,-2.0196e-05,-3.41e-06,0.0,0 STARLINK-5613,1 55752U 23028M   23128.31237451 -.00000341  00000-0 -20196-4 0  9993,2 55752  70.0002 337.4204 0002581 268.3238  91.7626 14.99298165 10800,6947.201,96.045,570.859,567.272,0.0
55752.0,STARLINK-5613,PAYLOAD,2023-05-09 23:31:37,14.99297703,0.0002653,69.9998,333.2079,267.4775,92.6081,6.932e-05,7.54e-06,0.0,0 STARLINK-5613,1 55752U 23028M   23129.98029121  .00000754  00000-0  69320-4 0  9998,2 55752  69.9998 333.2079 0002653 267.4775  92.6081 14.99297703 11051,6947.202,96.045,570.91,567.224,0.0
55752.0,STARLINK-5613,PAYLOAD,2023-05-10 20:20:33,14.99299887,0.0002537,70.0,331.0178,265.7693,94.3176,6.3229e-05,6.8e-06,0.0,0 STARLINK-5613,1 55752U 23028M   23130.84760841  .00000680  00000-0  63229-4 0  9996,2 55752  70.0000 331.0178 0002537 265.7693  94.3176 14.99299887 11188,6947.195,96.045,570.823,567.298,0.0
55752.0,STARLINK-5613,PAYLOAD,2023-05-10 23:32:42,14.99295032,0.0002469,70.0001,330.6813,263.4581,96.6297,9.6822e-05,1.091e-05,0.0,0 STARLINK-5613,1 55752U 23028M   23130.98104449  .00001091  00000-0  96822-4 0  9999,2 55752  70.0001 330.6813 0002469 263.4581  96.6297 14.99295032 11205,6947.21,96.045,570.79,567.36,0.0
55752.0,STARLINK-5613,PAYLOAD,2023-05-11 05:56:59,14.99315706,0.0002633,70.0001,330.0078,265.8369,94.249,-0.00028426,-3.572e-05,0.0,0 STARLINK-5613,1 55752U 23028M   23131.24790718 -.00003572  00000-0 -28426-3 0  9991,2 55752  70.0001 330.0078 0002633 265.8369  94.2490 14.99315706 11249,6947.146,96.044,570.841,567.182,0.0
55752.0,STARLINK-5613,PAYLOAD,2023-05-11 13:57:20,14.99301107,0.0002698,69.9997,329.1654,265.0604,95.0247,1.151e-05,4.7e-07,0.0,0 STARLINK-5613,1 55752U 23028M   23131.58149303  .00000047  00000-0  11510-4 0  9995,2 55752  69.9997 329.1654 0002698 265.0604  95.0247 14.99301107 11298,6947.191,96.045,570.931,567.182,0.0
55752.0,STARLINK-5613,PAYLOAD,2023-05-11 17:09:29,14.9930135,0.0002696,69.9997,328.8285,265.0204,95.0647,1.4262e-05,8.1e-07,0.0,0 STARLINK-5613,1 55752U 23028M   23131.71492631  .00000081  00000-0  14262-4 0  9990,2 55752  69.9997 328.8285 0002696 265.0204  95.0647 14.99301350 11315,6947.191,96.045,570.929,567.183,0.0
55752.0,STARLINK-5613,PAYLOAD,2023-05-11 23:33:46,14.99302109,0.0002692,69.9997,328.1546,265.0988,94.9864,2.2184e-05,1.78e-06,0.0,0 STARLINK-5613,1 55752U 23028M   23131.98179267  .00000178  00000-0  22184-4 0  9995,2 55752  69.9997 328.1546 0002692 265.0988  94.9864 14.99302109 11359,6947.188,96.045,570.924,567.183,0.0
55752.0,STARLINK-5613,PAYLOAD,2023-05-12 18:46:39,14.99299258,0.000272,69.9997,326.1328,265.2077,94.8772,-1.7869e-05,-3.12e-06,0.0,0 STARLINK-5613,1 55752U 23028M   23132.78239701 -.00000312  00000-0 -17869-4 0  9990,2 55752  69.9997 326.1328 0002720 265.2077  94.8772 14.99299258 11478,6947.197,96.045,570.952,567.173,0.0
55752.0,STARLINK-5613,PAYLOAD,2023-05-12 20:22:43,14.99300701,0.0002702,69.9997,325.9644,265.0579,95.0272,-1.7235e-06,-1.15e-06,0.0,0 STARLINK-5613,1 55752U 23028M   23132.84911244 -.00000115  00000-0 -17235-5 0  9995,2 55752  69.9997 325.9644 0002702 265.0579  95.0272 14.99300701 11486,6947.193,96.045,570.935,567.181,0.0
55752.0,STARLINK-5613,PAYLOAD,2023-05-13 05:59:09,14.9930706,0.0002375,70.0009,324.9544,264.6865,95.4024,-0.00016204,-2.076e-05,0.0,0 STARLINK-5613,1 55752U 23028M   23133.24941415 -.00002076  00000-0 -16204-3 0  9994,2 55752  70.0009 324.9544 0002375 264.6865  95.4024 14.99307060 11541,6947.173,96.044,570.688,567.388,0.0
